{
  "type": "FeatureCollection",
  "features": [
    {
      "type": "Feature",
      "properties": {
        "norad_id": 28054,
        "name": "DMSP 5D-3 F16 (USA 172)",
        "group": "weather",
        "lat": 50.38814194871386,
        "lon": -153.16416381424557,
        "alt_km": 843.6912619467048,
        "timestamp": "2025-12-24T05:51:19.248514+00:00",
        "meta_object_name": "DMSP 5D-3 F16 (USA 172)",
        "meta_object_id": "2003-048A",
        "meta_epoch": "2025-12-23T23:00:36.160704",
        "meta_mean_motion": 14.14428083,
        "meta_eccentricity": 0.00062519,
        "meta_inclination": 99.0038,
        "meta_ra_of_asc_node": 15.5036,
        "meta_arg_of_pericenter": 284.8895,
        "meta_mean_anomaly": 192.2905,
        "meta_ephemeris_type": 0,
        "meta_classification_type": "U",
        "meta_norad_cat_id": 28054,
        "meta_element_set_no": 999,
        "meta_rev_at_epoch": 14471,
        "meta_bstar": 8.0979925e-05,
        "meta_mean_motion_dot": 1.1e-06,
        "meta_mean_motion_ddot": 0,
        "tle_line1": "1 28054U 03048A   25357.95875186  .00000110  00000+0  80980-4 0  9995",
        "tle_line2": "2 28054  99.0038  15.5036 0006251 284.8895 192.2905 14.14428083144718"
      },
      "geometry": {
        "type": "Point",
        "coordinates": [
          -153.16416381424557,
          50.38814194871386
        ]
      }
    },
    {
      "type": "Feature",
      "properties": {
        "norad_id": 28912,
        "name": "METEOSAT-9 (MSG-2)",
        "group": "weather",
        "lat": 1.6476770959712521,
        "lon": -134.68593548250198,
        "alt_km": 35880.660690180695,
        "timestamp": "2025-12-24T05:51:19.248564+00:00",
        "meta_object_name": "METEOSAT-9 (MSG-2)",
        "meta_object_id": "2005-049B",
        "meta_epoch": "2025-12-23T18:29:06.029088",
        "meta_mean_motion": 1.00268078,
        "meta_eccentricity": 0.00595948,
        "meta_inclination": 8.9546,
        "meta_ra_of_asc_node": 55.8585,
        "meta_arg_of_pericenter": 281.8406,
        "meta_mean_anomaly": 77.1031,
        "meta_ephemeris_type": 0,
        "meta_classification_type": "U",
        "meta_norad_cat_id": 28912,
        "meta_element_set_no": 999,
        "meta_rev_at_epoch": 523,
        "meta_bstar": 0,
        "meta_mean_motion_dot": 1.44e-06,
        "meta_mean_motion_ddot": 0,
        "tle_line1": "1 28912U 05049B   25357.77020867  .00000144  00000+0  00000+0 0  9996",
        "tle_line2": "2 28912   8.9546  55.8585 0059594 281.8406  77.1031  1.00268078  5234"
      },
      "geometry": {
        "type": "Point",
        "coordinates": [
          -134.68593548250198,
          1.6476770959712521
        ]
      }
    },
    {
      "type": "Feature",
      "properties": {
        "norad_id": 29522,
        "name": "DMSP 5D-3 F17 (USA 191)",
        "group": "weather",
        "lat": 81.22047100283166,
        "lon": -81.45791396159075,
        "alt_km": 836.5056344432733,
        "timestamp": "2025-12-24T05:51:19.248581+00:00",
        "meta_object_name": "DMSP 5D-3 F17 (USA 191)",
        "meta_object_id": "2006-050A",
        "meta_epoch": "2025-12-23T22:38:45.805344",
        "meta_mean_motion": 14.14924256,
        "meta_eccentricity": 0.00098854,
        "meta_inclination": 98.7392,
        "meta_ra_of_asc_node": 3.0994,
        "meta_arg_of_pericenter": 191.4164,
        "meta_mean_anomaly": 168.6787,
        "meta_ephemeris_type": 0,
        "meta_classification_type": "U",
        "meta_norad_cat_id": 29522,
        "meta_element_set_no": 999,
        "meta_rev_at_epoch": 98763,
        "meta_bstar": 9.8124875e-05,
        "meta_mean_motion_dot": 1.46e-06,
        "meta_mean_motion_ddot": 0,
        "tle_line1": "1 29522U 06050A   25357.94358571  .00000146  00000+0  98125-4 0  9994",
        "tle_line2": "2 29522  98.7392   3.0994 0009885 191.4164 168.6787 14.14924256987635"
      },
      "geometry": {
        "type": "Point",
        "coordinates": [
          -81.45791396159075,
          81.22047100283166
        ]
      }
    },
    {
      "type": "Feature",
      "properties": {
        "norad_id": 32958,
        "name": "FENGYUN 3A",
        "group": "weather",
        "lat": -6.654311063914452,
        "lon": -61.45061168358582,
        "alt_km": 829.763959918635,
        "timestamp": "2025-12-24T05:51:19.248595+00:00",
        "meta_object_name": "FENGYUN 3A",
        "meta_object_id": "2008-026A",
        "meta_epoch": "2025-12-23T12:58:13.024128",
        "meta_mean_motion": 14.19517741,
        "meta_eccentricity": 0.00076337,
        "meta_inclination": 98.6714,
        "meta_ra_of_asc_node": 296.8405,
        "meta_arg_of_pericenter": 275.4269,
        "meta_mean_anomaly": 84.6036,
        "meta_ephemeris_type": 0,
        "meta_classification_type": "U",
        "meta_norad_cat_id": 32958,
        "meta_element_set_no": 999,
        "meta_rev_at_epoch": 91048,
        "meta_bstar": 6.5348721e-05,
        "meta_mean_motion_dot": 9.4e-07,
        "meta_mean_motion_ddot": 0,
        "tle_line1": "1 32958U 08026A   25357.54042852  .00000094  00000+0  65349-4 0  9998",
        "tle_line2": "2 32958  98.6714 296.8405 0007633 275.4269  84.6036 14.19517741910481"
      },
      "geometry": {
        "type": "Point",
        "coordinates": [
          -61.45061168358582,
          -6.654311063914452
        ]
      }
    },
    {
      "type": "Feature",
      "properties": {
        "norad_id": 35491,
        "name": "GOES 14",
        "group": "weather",
        "lat": -0.4328865491682581,
        "lon": 63.84877059392465,
        "alt_km": 35837.42286627077,
        "timestamp": "2025-12-24T05:51:19.248609+00:00",
        "meta_object_name": "GOES 14",
        "meta_object_id": "2009-033A",
        "meta_epoch": "2025-12-23T16:00:05.299200",
        "meta_mean_motion": 1.00097003,
        "meta_eccentricity": 6.113e-05,
        "meta_inclination": 1.2304,
        "meta_ra_of_asc_node": 85.2938,
        "meta_arg_of_pericenter": 188.8925,
        "meta_mean_anomaly": 301.646,
        "meta_ephemeris_type": 0,
        "meta_classification_type": "U",
        "meta_norad_cat_id": 35491,
        "meta_element_set_no": 999,
        "meta_rev_at_epoch": 483,
        "meta_bstar": 0,
        "meta_mean_motion_dot": 3.1e-07,
        "meta_mean_motion_ddot": 0,
        "tle_line1": "1 35491U 09033A   25357.66672800  .00000031  00000+0  00000+0 0  9996",
        "tle_line2": "2 35491   1.2304  85.2938 0000611 188.8925 301.6460  1.00097003  4833"
      },
      "geometry": {
        "type": "Point",
        "coordinates": [
          63.84877059392465,
          -0.4328865491682581
        ]
      }
    },
    {
      "type": "Feature",
      "properties": {
        "norad_id": 35951,
        "name": "DMSP 5D-3 F18 (USA 210)",
        "group": "weather",
        "lat": -48.71597750444773,
        "lon": -15.149916404507003,
        "alt_km": 848.6475453115781,
        "timestamp": "2025-12-24T05:51:19.248622+00:00",
        "meta_object_name": "DMSP 5D-3 F18 (USA 210)",
        "meta_object_id": "2009-057A",
        "meta_epoch": "2025-12-23T21:36:07.383744",
        "meta_mean_motion": 14.14776433,
        "meta_eccentricity": 0.00117433,
        "meta_inclination": 98.8848,
        "meta_ra_of_asc_node": 334.2457,
        "meta_arg_of_pericenter": 33.2651,
        "meta_mean_anomaly": 326.9258,
        "meta_ephemeris_type": 0,
        "meta_classification_type": "U",
        "meta_norad_cat_id": 35951,
        "meta_element_set_no": 999,
        "meta_rev_at_epoch": 83480,
        "meta_bstar": 0.00016615797,
        "meta_mean_motion_dot": 2.76e-06,
        "meta_mean_motion_ddot": 0,
        "tle_line1": "1 35951U 09057A   25357.90008546  .00000276  00000+0  16616-3 0  9995",
        "tle_line2": "2 35951  98.8848 334.2457 0011743  33.2651 326.9258 14.14776433834802"
      },
      "geometry": {
        "type": "Point",
        "coordinates": [
          -15.149916404507003,
          -48.71597750444773
        ]
      }
    },
    {
      "type": "Feature",
      "properties": {
        "norad_id": 36411,
        "name": "EWS-G2 (GOES 15)",
        "group": "weather",
        "lat": 0.32312855925967265,
        "lon": -117.8207755919995,
        "alt_km": 35764.56302030625,
        "timestamp": "2025-12-24T05:51:19.248635+00:00",
        "meta_object_name": "EWS-G2 (GOES 15)",
        "meta_object_id": "2010-008A",
        "meta_epoch": "2025-12-23T21:59:01.074624",
        "meta_mean_motion": 1.00271067,
        "meta_eccentricity": 0.00055393,
        "meta_inclination": 0.8396,
        "meta_ra_of_asc_node": 86.0712,
        "meta_arg_of_pericenter": 178.5961,
        "meta_mean_anomaly": 219.1412,
        "meta_ephemeris_type": 0,
        "meta_classification_type": "U",
        "meta_norad_cat_id": 36411,
        "meta_element_set_no": 999,
        "meta_rev_at_epoch": 5788,
        "meta_bstar": 0,
        "meta_mean_motion_dot": 5.9e-07,
        "meta_mean_motion_ddot": 0,
        "tle_line1": "1 36411U 10008A   25357.91598466  .00000059  00000+0  00000+0 0  9996",
        "tle_line2": "2 36411   0.8396  86.0712 0005539 178.5961 219.1412  1.00271067 57888"
      },
      "geometry": {
        "type": "Point",
        "coordinates": [
          -117.8207755919995,
          0.32312855925967265
        ]
      }
    }
  ]
}